NORAD_CAT_ID,OBJECT_NAME,OBJECT_TYPE,EPOCH,MEAN_MOTION,ECCENTRICITY,INCLINATION,RA_OF_ASC_NODE,ARG_OF_PERICENTER,MEAN_ANOMALY,BSTAR,MEAN_MOTION_DOT,MEAN_MOTION_DDOT,TLE_LINE0,TLE_LINE1,TLE_LINE2,SEMIMAJOR_AXIS,PERIOD,APOGEE,PERIGEE,DECAYED
56772.0,STARLINK-6275,PAYLOAD,2023-09-13 01:25:33,14.98333327,0.0003078,69.9997,135.4159,268.3868,91.6938,0.000123,1.375e-05,0.0,0 STARLINK-6275,1 56772U 23078F   23256.05941256  .00001375  00000-0  12300-3 0  9992,2 56772  69.9997 135.4159 0003078 268.3868  91.6938 14.98333327 16348,6950.183,96.107,574.187,569.908,0.0
56772.0,STARLINK-6275,PAYLOAD,2023-09-13 17:26:54,14.983292,0.0003094,69.9995,133.7335,269.7047,90.3758,-8.5902e-06,-1.96e-06,0.0,0 STARLINK-6275,1 56772U 23078F   23256.72701759 -.00000196  00000-0 -85902-5 0  9990,2 56772  69.9995 133.7335 0003094 269.7047  90.3758 14.98329200 16447,6950.195,96.107,574.211,569.91,0.0
56772.0,STARLINK-6275,PAYLOAD,2023-09-13 22:15:18,14.98331558,0.0003095,69.9997,133.2284,270.32,89.7604,-1.2825e-05,-2.46e-06,0.0,0 STARLINK-6275,1 56772U 23078F   23256.92729606 -.00000246  00000-0 -12825-4 0  9992,2 56772  69.9997 133.2284 0003095 270.3200  89.7604 14.98331558 16213,6950.188,96.107,574.204,569.902,0.0
56772.0,STARLINK-6275,PAYLOAD,2023-09-14 01:27:34,14.9833126,0.0002967,70.0001,132.8913,270.0442,90.0377,3.9942e-05,3.84e-06,0.0,0 STARLINK-6275,1 56772U 23078F   23257.06081470  .00000384  00000-0  39942-4 0  9998,2 56772  70.0001 132.8913 0002967 270.0442  90.0377 14.98331260 16232,6950.189,96.107,574.116,569.992,0.0
56772.0,STARLINK-6275,PAYLOAD,2023-09-14 17:28:55,14.9832258,0.0003423,70.0006,131.2084,269.8615,90.2152,-7.2155e-06,-1.79e-06,0.0,0 STARLINK-6275,1 56772U 23078F   23257.72842111 -.00000179  00000-0 -72155-5 0  9996,2 56772  70.0006 131.2084 0003423 269.8615  90.2152 14.98322580 16592,6950.216,96.107,574.46,569.702,0.0
56772.0,STARLINK-6275,PAYLOAD,2023-09-14 20:41:11,14.98321561,0.0003411,70.0005,130.8718,269.5866,90.4902,-1.9673e-05,-3.28e-06,0.0,0 STARLINK-6275,1 56772U 23078F   23257.86194260 -.00000328  00000-0 -19673-4 0  9997,2 56772  70.0005 130.8718 0003411 269.5866  90.4902 14.98321561 16359,6950.219,96.108,574.455,569.713,0.0
56772.0,STARLINK-6275,PAYLOAD,2023-09-15 01:29:36,14.98325054,0.0003,70.0006,130.3681,269.9672,90.1144,-9.4491e-05,-1.22e-05,0.0,0 STARLINK-6275,1 56772U 23078F   23258.06222289 -.00001220  00000-0 -94491-4 0  9996,2 56772  70.0006 130.3681 0003000 269.9672  90.1144 14.98325054 16386,6950.208,96.107,574.158,569.988,0.0
56772.0,STARLINK-6275,PAYLOAD,2023-09-15 17:30:56,14.98331965,0.0003261,69.9994,128.683,273.2951,86.7835,3.2465e-05,2.94e-06,0.0,0 STARLINK-6275,1 56772U 23078F   23258.72981550  .00000294  00000-0  32465-4 0  9993,2 56772  69.9994 128.6830 0003261 273.2951  86.7835 14.98331965 16748,6950.187,96.107,574.318,569.785,0.0
56772.0,STARLINK-6275,PAYLOAD,2023-09-16 01:31:35,14.98337737,0.0003222,69.9995,127.8417,273.071,87.008,9.1578e-05,1e-05,0.0,0 STARLINK-6275,1 56772U 23078F   23259.06360940  .00001000  00000-0  91578-4 0  9991,2 56772  69.9995 127.8417 0003222 273.0710  87.0080 14.98337737 16793,6950.169,96.107,574.273,569.795,0.0
56772.0,STARLINK-6275,PAYLOAD,2023-09-16 17:32:57,14.98323889,0.0003187,69.9995,126.1585,274.4861,85.5933,1.534e-05,9e-07,0.0,0 STARLINK-6275,1 56772U 23078F   23259.73122015  .00000090  00000-0  15340-4 0  9995,2 56772  69.9995 126.1585 0003187 274.4861  85.5933 14.98323889 16897,6950.212,96.107,574.292,569.862,0.0
56772.0,STARLINK-6275,PAYLOAD,2023-09-17 01:33:37,14.98320872,0.0003142,70.0,125.317,274.9835,85.0965,0.00013084,1.468e-05,0.0,0 STARLINK-6275,1 56772U 23078F   23260.06502026  .00001468  00000-0  13084-3 0  9999,2 56772  70.0000 125.3170 0003142 274.9835  85.0965 14.98320872 16681,6950.221,96.108,574.27,569.902,0.0
56772.0,STARLINK-6275,PAYLOAD,2023-09-17 19:11:04,14.98346006,0.0002956,69.9994,123.4649,256.9953,103.0876,9.6879e-05,1.064e-05,0.0,0 STARLINK-6275,1 56772U 23078F   23260.79936317  .00001064  00000-0  96879-4 0  9999,2 56772  69.9994 123.4649 0002956 256.9953 103.0876 14.98346006 17054,6950.143,96.106,574.063,569.954,0.0
56772.0,STARLINK-6275,PAYLOAD,2023-09-17 23:59:29,14.98337127,0.000303,69.9995,122.9603,270.4866,89.5946,1.4904e-05,8.5e-07,0.0,0 STARLINK-6275,1 56772U 23078F   23260.99965080  .00000085  00000-0  14904-4 0  9991,2 56772  69.9995 122.9603 0003030 270.4866  89.5946 14.98337127 17080,6950.171,96.107,574.142,569.93,0.0
56772.0,STARLINK-6275,PAYLOAD,2023-09-18 17:36:58,14.9832881,0.0002911,69.9999,121.1098,264.3528,95.7299,2.8236e-05,2.44e-06,0.0,0 STARLINK-6275,1 56772U 23078F   23261.73401462  .00000244  00000-0  28236-4 0  9993,2 56772  69.9999 121.1098 0002911 264.3528  95.7299 14.98328810 17198,6950.197,96.107,574.085,570.038,0.0
56772.0,STARLINK-6275,PAYLOAD,2023-09-18 20:49:12,14.98365961,0.0003528,69.9992,120.7717,273.0251,87.0505,0.00044922,5.276e-05,0.0,0 STARLINK-6275,1 56772U 23078F   23261.86750143  .00005276  00000-0  44922-3 0  9999,2 56772  69.9992 120.7717 0003528 273.0251  87.0505 14.98365961 16954,6950.082,96.105,574.399,569.495,0.0
56772.0,STARLINK-6275,PAYLOAD,2023-09-19 19:15:07,14.98332391,0.0003076,69.9995,118.4155,267.0385,93.0422,2.7836e-05,2.39e-06,0.0,0 STARLINK-6275,1 56772U 23078F   23262.80216960  .00000239  00000-0  27836-4 0  9998,2 56772  69.9995 118.4155 0003076 267.0385  93.0422 14.98332391 17357,6950.185,96.107,574.188,569.913,0.0
56772.0,STARLINK-6275,PAYLOAD,2023-09-20 00:03:31,14.98336086,0.0003074,69.9996,117.9103,272.9628,87.1179,6.9002e-05,7.31e-06,0.0,0 STARLINK-6275,1 56772U 23078F   23263.00244636  .00000731  00000-0  69002-4 0  9990,2 56772  69.9996 117.9103 0003074 272.9628  87.1179 14.98336086 17121,6950.174,96.107,574.176,569.903,0.0
56772.0,STARLINK-6275,PAYLOAD,2023-09-20 17:41:01,14.98316704,0.0003066,69.9992,116.0583,273.056,87.0248,-0.00012517,-1.586e-05,0.0,0 STARLINK-6275,1 56772U 23078F   23263.73682400 -.00001586  00000-0 -12517-3 0  9994,2 56772  69.9992 116.0583 0003066 273.0560  87.0248 14.98316704 17498,6950.234,96.108,574.23,569.968,0.0
56772.0,STARLINK-6275,PAYLOAD,2023-09-20 20:53:17,14.98319221,0.0003255,69.9987,115.7225,275.7617,84.3171,-9.132e-05,-1.182e-05,0.0,0 STARLINK-6275,1 56772U 23078F   23263.87034276 -.00001182  00000-0 -91320-4 0  9993,2 56772  69.9987 115.7225 0003255 275.7617  84.3171 14.98319221 17259,6950.226,96.108,574.354,569.829,0.0
56772.0,STARLINK-6275,PAYLOAD,2023-09-21 00:05:33,14.98319054,0.0003356,69.9991,115.387,273.3461,86.7314,-7.0492e-05,-9.34e-06,0.0,0 STARLINK-6275,1 56772U 23078F   23264.00386262 -.00000934  00000-0 -70492-4 0  9995,2 56772  69.9991 115.3870 0003356 273.3461  86.7314 14.98319054 17270,6950.227,96.108,574.424,569.759,0.0
56772.0,STARLINK-6275,PAYLOAD,2023-09-21 17:43:02,14.98326355,0.0003124,69.9988,113.5343,268.336,91.7441,-5.8411e-05,-7.9e-06,0.0,0 STARLINK-6275,1 56772U 23078F   23264.73821998 -.00000790  00000-0 -58411-4 0  9992,2 56772  69.9988 113.5343 0003124 268.3360  91.7441 14.98326355 17646,6950.204,96.107,574.24,569.898,0.0
56772.0,STARLINK-6275,PAYLOAD,2023-09-21 20:55:18,14.98329522,0.0002953,69.9993,113.1977,269.2127,90.8694,-7.2842e-05,-9.62e-06,0.0,0 STARLINK-6275,1 56772U 23078F   23264.87173899 -.00000962  00000-0 -72842-4 0  9992,2 56772  69.9993 113.1977 0002953 269.2127  90.8694 14.98329522 17404,6950.194,96.107,574.112,570.007,0.0
56772.0,STARLINK-6275,PAYLOAD,2023-09-22 00:07:34,14.98329092,0.0003006,69.9993,112.8608,270.177,89.9045,-3.888e-05,-5.57e-06,0.0,0 STARLINK-6275,1 56772U 23078F   23265.00525856 -.00000557  00000-0 -38880-4 0  9996,2 56772  69.9993 112.8608 0003006 270.1770  89.9045 14.98329092 17429,6950.196,96.107,574.15,569.971,0.0
56772.0,STARLINK-6275,PAYLOAD,2023-09-22 17:45:04,14.98306049,0.0002827,69.9991,111.0085,263.3214,96.7623,-1.3319e-06,-1.09e-06,0.0,0 STARLINK-6275,1 56772U 23078F   23265.73963836 -.00000109  00000-0 -13319-5 0  9994,2 56772  69.9991 111.0085 0002827 263.3214  96.7623 14.98306049 17799,6950.267,96.109,574.097,570.167,0.0
56772.0,STARLINK-6275,PAYLOAD,2023-09-22 20:57:20,14.98315713,0.0003192,69.9992,110.6725,274.2934,85.786,6.1474e-05,6.4e-06,0.0,0 STARLINK-6275,1 56772U 23078F   23265.87315253  .00000640  00000-0  61474-4 0  9995,2 56772  69.9992 110.6725 0003192 274.2934  85.7860 14.98315713 17555,6950.237,96.108,574.321,569.884,0.0
56772.0,STARLINK-6275,PAYLOAD,2023-09-23 00:09:36,14.98315678,0.0002998,69.9997,110.3361,270.0466,90.0349,7.4056e-05,7.9e-06,0.0,0 STARLINK-6275,1 56772U 23078F   23266.00667381  .00000790  00000-0  74056-4 0  9999,2 56772  69.9997 110.3361 0002998 270.0466  90.0349 14.98315678 17832,6950.237,96.108,574.186,570.018,0.0
56772.0,STARLINK-6275,PAYLOAD,2023-09-23 19:23:12,14.98330031,0.000316,69.9993,108.3157,271.5036,88.5761,7.4499e-05,7.96e-06,0.0,0 STARLINK-6275,1 56772U 23078F   23266.80778743  .00000796  00000-0  74499-4 0  9999,2 56772  69.9993 108.3157 0003160 271.5036  88.5761 14.98330031 17952,6950.193,96.107,574.254,569.862,0.0
56772.0,STARLINK-6275,PAYLOAD,2023-09-24 00:11:36,14.98332732,0.0003208,69.9991,107.8103,272.4598,87.6194,0.0001002,1.103e-05,0.0,0 STARLINK-6275,1 56772U 23078F   23267.00806494  .00001103  00000-0  10020-3 0  9999,2 56772  69.9991 107.8103 0003208 272.4598  87.6194 14.98332732 17726,6950.184,96.107,574.279,569.82,0.0
56772.0,STARLINK-6275,PAYLOAD,2023-09-24 22:37:29,14.98326922,0.0003396,69.999,105.4535,271.9968,88.0802,0.00045029,5.283e-05,0.0,0 STARLINK-6275,1 56772U 23078F   23267.94269764  .00005283  00000-0  45029-3 0  9995,2 56772  69.9990 105.4535 0003396 271.9968  88.0802 14.98326922 17861,6950.202,96.107,574.428,569.707,0.0
56772.0,STARLINK-6275,PAYLOAD,2023-09-25 06:38:09,14.98338661,0.0003321,69.9988,104.6121,268.4109,91.667,0.00010844,1.201e-05,0.0,0 STARLINK-6275,1 56772U 23078F   23268.27649633  .00001201  00000-0  10844-3 0  9992,2 56772  69.9988 104.6121 0003321 268.4109  91.6670 14.98338661 17918,6950.166,96.106,574.339,569.723,0.0
